GLOBALSTAR M063         
1 26081U 00008A   25034.52110122 -.00000139  00000+0 -82393-3 0  9995
2 26081  51.9955 103.6001 0004951  64.9474  41.3671 11.86166782141719
GLOBALSTAR M062         
1 26082U 00008B   25034.45139862 -.00000038  00000+0  42850-3 0  9991
2 26082  51.9843 129.0569 0007338 181.2548 260.0298 12.43459038479985
GLOBALSTAR M060         
1 26083U 00008C   25034.43670744 -.00000079  00000+0  11905-3 0  9991
2 26083  52.0021  70.1855 0003429 206.4916 261.5511 12.17652137136076
GLOBALSTAR M064         
1 26084U 00008D   25034.76147686 -.00000077  00000+0  88217-4 0  9991
2 26084  52.0000 203.3672 0002289 134.3186 225.7835 11.88529908151346
GLOBALSTAR M065         
1 31571U 07020A   25033.99041895 -.00000082  00000+0  12360-3 0  9999
2 31571  51.9887 274.7212 0010813  14.7771  90.8827 12.61990718816465
GLOBALSTAR M069         
1 31573U 07020C   25034.04639906 -.00000082  00000+0  11971-3 0  9991
2 31573  51.9924 236.9589 0001975  62.6543 103.2347 12.47307475817489
GLOBALSTAR M072         
1 31574U 07020D   25034.33635799 -.00000063  00000+0  28212-3 0  9995
2 31574  52.0107 348.2763 0001248  69.5792  98.4077 11.91772452815506
GLOBALSTAR M071         
1 31576U 07020F   25034.80743214 -.00000005  00000+0  85300-3 0  9998
2 31576  52.0035 244.5771 0001120 122.7963 320.2455 12.18248222817596
